FENGYUN 3D              
1 43010U 17072A   26190.84020517  .00000099  00000+0  68796-4 0  9997
2 43010  99.0140 165.6729 0001787  25.4353 334.6910 14.19744075448200
NOAA 20 (JPSS-1)        
1 43013U 17073A   26190.83888940  .00000010  00000+0  25762-4 0  9991
2 43013  98.7774 130.1006 0001175 129.4717 230.6563 14.19515789447685
GOES 17                 
1 43226U 18022A   26190.62242605 -.00000171  00000+0  00000+0 0  9993
2 43226   0.9913  85.3468 0000596  74.2750 262.5157  1.00271182 30643
SENTINEL-3B             
1 43437U 18039A   26190.14034432  .00000049  00000+0  38281-4 0  9999
2 43437  98.6239 257.3566 0001006 120.1387 239.9893 14.26740920427251
FENGYUN 2H              
1 43491U 18050A   26190.86968471 -.00000118  00000+0  00000+0 0  9991
2 43491   3.0859  78.8148 0002192 128.9002 112.3850  1.00267958 29661
METOP-C                 
1 43689U 18087A   26190.80312984  .00000045  00000+0  40571-4 0  9996
2 43689  98.6632 249.9921 0002226 100.6310 259.5118 14.21518082398042
GEO-KOMPSAT-2A          
1 43823U 18100A   26190.80811837 -.00000331  00000+0  00000+0 0  9990
2 43823   0.0256 133.4226 0002025 327.1108 246.3920  1.00272501 27853
METEOR-M2 2             
1 44387U 19038A   26190.86388771 -.00000001  00000+0  19621-4 0  9997
2 44387  98.9160 178.4847 0001009  14.6215 345.4992 14.24371838364526
ARKTIKA-M 1             
1 47719U 21016A   26188.42887598 -.00000257  00000+0  00000+0 0  9997
2 47719  63.2524  54.6812 7295086 270.0380  14.5466  2.00614486 39194
FENGYUN 3E              
1 49008U 21062A   26190.82156644 -.00000294  00000+0 -11795-3 0  9998
2 49008  98.7504 193.9770 0002495  48.5741 311.5650 14.19905275259797
GOES 18                 
1 51850U 22021A   26190.75562685  .00000109  00000+0  00000+0 0  9996
2 51850   0.0049 166.3359 0000590  21.9556 234.4155  1.00271909  6817
NOAA 21 (JPSS-2)        
1 54234U 22150A   26190.80078845  .00000014  00000+0  27155-4 0  9994
2 54234  98.7061 129.2101 0002701 113.9772 246.1688 14.19540498189757
METEOSAT-12 (MTG-I1)    
1 54743U 22170C   26190.85397883  .00000004  00000+0  00000+0 0  9996
2 54743   0.7193  18.7296 0003857  82.9238 133.3248  1.00266777 13209
TIANMU-1 03             
1 55973U 23039A   26190.80988603  .00011224  00000+0  21701-3 0  9999
2 55973  97.5243   5.6765 0003033  40.1608 319.9866 15.47939272184338
TIANMU-1 04             
1 55974U 23039B   26190.85509181  .00011904  00000+0  22513-3 0  9992
2 55974  97.5176   4.8795 0003555  32.5718 327.5751 15.48559781184358
TIANMU-1 05             
1 55975U 23039C   26190.85640686  .00011390  00000+0  22075-3 0  9991
2 55975  97.5221   5.3318 0003419  60.2078 299.9511 15.47862696184327
TIANMU-1 06             
1 55976U 23039D   26190.85992270  .00011846  00000+0  22483-3 0  9990
2 55976  97.5228   5.9942 0003545  52.9159 307.2415 15.48457713184352
FENGYUN 3G              
1 56232U 23055A   26190.68892366  .00015992  00000+0  25226-3 0  9994
2 56232  49.9916 229.9927 0007175  31.3867 328.7527 15.53622560183502
METEOR-M2 3             
1 57166U 23091A   26190.86343948 -.00000026  00000+0  73192-5 0  9998
2 57166  98.6071 245.3764 0005138 102.2067 257.9687 14.24048606157747
TIANMU-1 07             
1 57399U 23101A   26190.86088230  .00004355  00000+0  15215-3 0  9996
2 57399  97.2585 241.0101 0004040  75.6016 284.5674 15.30075065165115
TIANMU-1 08             
1 57400U 23101B   26190.82746280  .00004401  00000+0  15371-3 0  9996
2 57400  97.2574 240.7448 0005065  60.2901 299.8844 15.30078987165100
TIANMU-1 09             
1 57401U 23101C   26190.81036449  .00004499  00000+0  15688-3 0  9993
2 57401  97.2532 240.1324 0004662  76.7611 283.4149 15.30118327165104
TIANMU-1 10             
1 57402U 23101D   26190.84381576  .00004515  00000+0  15755-3 0  9995
2 57402  97.2612 241.2387 0006028  68.2969 291.8914 15.30091985165108
FENGYUN 3F              
1 57490U 23111A   26190.80494155  .00000001  00000+0  20973-4 0  9992
2 57490  98.6828 260.3913 0001390  78.6705 281.4628 14.19942840152076
ARKTIKA-M 2             
1 58584U 23198A   26189.19640102  .00000204  00000+0  00000+0 0  9996
2 58584  63.2191 152.0158 6908458 267.3598  18.7565  2.00608968 18747
TIANMU-1 11             
1 58645U 23205A   26190.33215440  .00003698  00000+0  14130-3 0  9997
2 58645  97.3447 211.5434 0006799 288.6689  71.3811 15.27225241140908
TIANMU-1 12             
1 58646U 23205B   26190.30390264  .00003994  00000+0  15317-3 0  9990
2 58646  97.3436 211.2649 0005508 261.8572  98.2042 15.27055963140886
TIANMU-1 13             
1 58647U 23205C   26190.33731617  .00003905  00000+0  14988-3 0  9990
2 58647  97.3463 211.5757 0005269 237.6289 122.4441 15.27048280140887
TIANMU-1 14             
1 58648U 23205D   26190.32187705  .00003855  00000+0  14778-3 0  9994
2 58648  97.3399 210.7250 0005964 245.8520 114.2095 15.27092258140884
TIANMU-1 19             
1 58660U 23208A   26190.30228942  .00005971  00000+0  19630-3 0  9991
2 58660  97.4514 306.7220 0004030 221.8978 138.1956 15.31916066140715
TIANMU-1 20             
1 58661U 23208B   26190.25765985  .00005885  00000+0  18645-3 0  9998
2 58661  97.4456 307.3354 0005865 236.3816 123.6867 15.33104044140802
